STARLINK-31916          
1 59795U 24093P   26068.41689169  .00000055  00000+0  11522-4 0  9993
2 59795  43.0034 210.4390 0001198 249.4006 110.6718 15.27560366102653
LIME                    
1 62648U 25009AR  26068.73906781  .00013254  00000+0  47723-3 0  9995
2 62648  97.3985 151.4831 0001635  35.9029 324.2320 15.28703313 63766
